[{"OBJECT_NAME":"STARLINK-5433","OBJECT_ID":"2022-175AM","EPOCH":"2025-07-27T19:52:01.780896","MEAN_MOTION":15.08844625,"ECCENTRICITY":0.000108,"INCLINATION":53.2184,"RA_OF_ASC_NODE":308.578,"ARG_OF_PERICENTER":93.6518,"MEAN_ANOMALY":266.4597,"EPHEMERIS_TYPE":0,"CLASSIFICATION_TYPE":"U","NORAD_CAT_ID":54793,"ELEMENT_SET_NO":999,"REV_AT_EPOCH":14632,"BSTAR":4.0211e-5,"MEAN_MOTION_DOT":3.52e-6,"MEAN_MOTION_DDOT":0},{"OBJECT_NAME":"STARLINK-5436","OBJECT_ID":"2022-175AP","EPOCH":"2025-07-27T21:10:10.295040","MEAN_MOTION":15.08840658,"ECCENTRICITY":0.0001189,"INCLINATION":53.2188,"RA_OF_ASC_NODE":318.1525,"ARG_OF_PERICENTER":98.435,"MEAN_ANOMALY":261.6777,"EPHEMERIS_TYPE":0,"CLASSIFICATION_TYPE":"U","NORAD_CAT_ID":54795,"ELEMENT_SET_NO":999,"REV_AT_EPOCH":14619,"BSTAR":2.4931e-5,"MEAN_MOTION_DOT":1.09e-6,"MEAN_MOTION_DDOT":0},{"OBJECT_NAME":"STARLINK-5415","OBJECT_ID":"2022-175AQ","EPOCH":"2025-07-27T20:59:33.619488","MEAN_MOTION":15.088379,"ECCENTRICITY":0.0001018,"INCLINATION":53.2184,"RA_OF_ASC_NODE":318.1038,"ARG_OF_PERICENTER":83.6734,"MEAN_ANOMALY":276.4374,"EPHEMERIS_TYPE":0,"CLASSIFICATION_TYPE":"U","NORAD_CAT_ID":54796,"ELEMENT_SET_NO":999,"REV_AT_EPOCH":14619,"BSTAR":-7.6788e-6,"MEAN_MOTION_DOT":-4.1e-6,"MEAN_MOTION_DDOT":0},{"OBJECT_NAME":"STARLINK-5435","OBJECT_ID":"2022-175AR","EPOCH":"2025-07-27T14:55:58.281312","MEAN_MOTION":15.08838853,"ECCENTRICITY":0.0001206,"INCLINATION":53.219,"RA_OF_ASC_NODE":334.3309,"ARG_OF_PERICENTER":89.5057,"MEAN_ANOMALY":270.6074,"EPHEMERIS_TYPE":0,"CLASSIFICATION_TYPE":"U","NORAD_CAT_ID":54797,"ELEMENT_SET_NO":999,"REV_AT_EPOCH":14594,"BSTAR":-1.0238e-5,"MEAN_MOTION_DOT":-4.51e-6,"MEAN_MOTION_DDOT":0},{"OBJECT_NAME":"STARLINK-5420","OBJECT_ID":"2022-175AS","EPOCH":"2025-07-27T12:58:39.633600","MEAN_MOTION":15.08840008,"ECCENTRICITY":0.0001202,"INCLINATION":53.2179,"RA_OF_ASC_NODE":309.6213,"ARG_OF_PERICENTER":87.0821,"MEAN_ANOMALY":273.0309,"EPHEMERIS_TYPE":0,"CLASSIFICATION_TYPE":"U","NORAD_CAT_ID":54798,"ELEMENT_SET_NO":999,"REV_AT_EPOCH":14628,"BSTAR":7.2603e-5,"MEAN_MOTION_DOT":8.68e-6,"MEAN_MOTION_DDOT":0},{"OBJECT_NAME":"STARLINK-5421","OBJECT_ID":"2022-175AT","EPOCH":"2025-07-27T13:25:11.350560","MEAN_MOTION":15.08840418,"ECCENTRICITY":0.0001375,"INCLINATION":53.2194,"RA_OF_ASC_NODE":309.7356,"ARG_OF_PERICENTER":93.1251,"MEAN_ANOMALY":266.9899,"EPHEMERIS_TYPE":0,"CLASSIFICATION_TYPE":"U","NORAD_CAT_ID":54799,"ELEMENT_SET_NO":999,"REV_AT_EPOCH":14628,"BSTAR":3.087e-5,"MEAN_MOTION_DOT":2.03e-6,"MEAN_MOTION_DDOT":0},{"OBJECT_NAME":"STARLINK-5428","OBJECT_ID":"2022-175AU","EPOCH":"2025-07-27T14:45:18.024480","MEAN_MOTION":15.08839094,"ECCENTRICITY":0.0001218,"INCLINATION":53.2187,"RA_OF_ASC_NODE":324.2922,"ARG_OF_PERICENTER":91.7157,"MEAN_ANOMALY":268.3974,"EPHEMERIS_TYPE":0,"CLASSIFICATION_TYPE":"U","NORAD_CAT_ID":54800,"ELEMENT_SET_NO":999,"REV_AT_EPOCH":14393,"BSTAR":7.2975e-5,"MEAN_MOTION_DOT":8.74e-6,"MEAN_MOTION_DDOT":0},{"OBJECT_NAME":"STARLINK-5429","OBJECT_ID":"2022-175AV","EPOCH":"2025-07-27T22:14:22.608384","MEAN_MOTION":15.08841758,"ECCENTRICITY":0.000123,"INCLINATION":53.2198,"RA_OF_ASC_NODE":332.6849,"ARG_OF_PERICENTER":86.543,"MEAN_ANOMALY":273.5703,"EPHEMERIS_TYPE":0,"CLASSIFICATION_TYPE":"U","NORAD_CAT_ID":54801,"ELEMENT_SET_NO":999,"REV_AT_EPOCH":14599,"BSTAR":9.9275e-5,"MEAN_MOTION_DOT":1.293e-5,"MEAN_MOTION_DDOT":0},{"OBJECT_NAME":"STARLINK-5426","OBJECT_ID":"2022-175AW","EPOCH":"2025-07-28T04:19:20.606304","MEAN_MOTION":15.08838208,"ECCENTRICITY":0.0001243,"INCLINATION":53.2171,"RA_OF_ASC_NODE":276.4421,"ARG_OF_PERICENTER":79.8461,"MEAN_ANOMALY":280.2671,"EPHEMERIS_TYPE":0,"CLASSIFICATION_TYPE":"U","NORAD_CAT_ID":54802,"ELEMENT_SET_NO":999,"REV_AT_EPOCH":14464,"BSTAR":1.744e-6,"MEAN_MOTION_DOT":-2.6e-6,"MEAN_MOTION_DDOT":0},{"OBJECT_NAME":"STARLINK-5430","OBJECT_ID":"2022-175AX","EPOCH":"2025-07-28T01:41:03.744672","MEAN_MOTION":15.08838043,"ECCENTRICITY":7.18e-5,"INCLINATION":53.2193,"RA_OF_ASC_NODE":332.1427,"ARG_OF_PERICENTER":88.8899,"MEAN_ANOMALY":271.2175,"EPHEMERIS_TYPE":0,"CLASSIFICATION_TYPE":"U","NORAD_CAT_ID":54803,"ELEMENT_SET_NO":999,"REV_AT_EPOCH":14385,"BSTAR":1.1868e-5,"MEAN_MOTION_DOT":-9.9e-7,"MEAN_MOTION_DDOT":0},{"OBJECT_NAME":"STARLINK-5422","OBJECT_ID":"2022-175AY","EPOCH":"2025-07-27T17:16:56.375616","MEAN_MOTION":15.08845656,"ECCENTRICITY":0.000122,"INCLINATION":53.2184,"RA_OF_ASC_NODE":318.5655,"ARG_OF_PERICENTER":91.8124,"MEAN_ANOMALY":268.3008,"EPHEMERIS_TYPE":0,"CLASSIFICATION_TYPE":"U","NORAD_CAT_ID":54804,"ELEMENT_SET_NO":999,"REV_AT_EPOCH":14617,"BSTAR":1.9176e-5,"MEAN_MOTION_DOT":1.7e-7,"MEAN_MOTION_DDOT":0},{"OBJECT_NAME":"STARLINK-5417","OBJECT_ID":"2022-175AZ","EPOCH":"2025-07-27T14:32:42.207648","MEAN_MOTION":15.08840907,"ECCENTRICITY":0.0001009,"INCLINATION":53.2184,"RA_OF_ASC_NODE":319.2686,"ARG_OF_PERICENTER":85.5535,"MEAN_ANOMALY":274.5572,"EPHEMERIS_TYPE":0,"CLASSIFICATION_TYPE":"U","NORAD_CAT_ID":54805,"ELEMENT_SET_NO":999,"REV_AT_EPOCH":14615,"BSTAR":4.418e-5,"MEAN_MOTION_DOT":4.15e-6,"MEAN_MOTION_DDOT":0},{"OBJECT_NAME":"STARLINK-5412","OBJECT_ID":"2022-175BA","EPOCH":"2025-07-27T17:27:33.770016","MEAN_MOTION":15.08839457,"ECCENTRICITY":0.0001215,"INCLINATION":53.2187,"RA_OF_ASC_NODE":318.6085,"ARG_OF_PERICENTER":91.5759,"MEAN_ANOMALY":268.5372,"EPHEMERIS_TYPE":0,"CLASSIFICATION_TYPE":"U","NORAD_CAT_ID":54806,"ELEMENT_SET_NO":999,"REV_AT_EPOCH":14617,"BSTAR":4.8989e-6,"MEAN_MOTION_DOT":-2.1e-6,"MEAN_MOTION_DDOT":0},{"OBJECT_NAME":"STARLINK-5410","OBJECT_ID":"2022-175BB","EPOCH":"2025-07-27T17:32:51.515520","MEAN_MOTION":15.08842952,"ECCENTRICITY":0.0001189,"INCLINATION":53.2189,"RA_OF_ASC_NODE":318.6297,"ARG_OF_PERICENTER":89.9116,"MEAN_ANOMALY":270.2012,"EPHEMERIS_TYPE":0,"CLASSIFICATION_TYPE":"U","NORAD_CAT_ID":54807,"ELEMENT_SET_NO":999,"REV_AT_EPOCH":14617,"BSTAR":5.5881e-5,"MEAN_MOTION_DOT":6.02e-6,"MEAN_MOTION_DDOT":0},{"OBJECT_NAME":"STARLINK-5413","OBJECT_ID":"2022-175BC","EPOCH":"2025-07-27T20:05:59.504064","MEAN_MOTION":15.08822122,"ECCENTRICITY":0.0001249,"INCLINATION":53.2175,"RA_OF_ASC_NODE":303.6904,"ARG_OF_PERICENTER":91.2512,"MEAN_ANOMALY":268.8623,"EPHEMERIS_TYPE":0,"CLASSIFICATION_TYPE":"U","NORAD_CAT_ID":54808,"ELEMENT_SET_NO":999,"REV_AT_EPOCH":14639,"BSTAR":6.865e-5,"MEAN_MOTION_DOT":8.04e-6,"MEAN_MOTION_DDOT":0},{"OBJECT_NAME":"STARLINK-5414","OBJECT_ID":"2022-175BD","EPOCH":"2025-07-27T17:22:15.044736","MEAN_MOTION":15.08841662,"ECCENTRICITY":0.0001153,"INCLINATION":53.2184,"RA_OF_ASC_NODE":318.585,"ARG_OF_PERICENTER":85.8218,"MEAN_ANOMALY":274.2905,"EPHEMERIS_TYPE":0,"CLASSIFICATION_TYPE":"U","NORAD_CAT_ID":54809,"ELEMENT_SET_NO":999,"REV_AT_EPOCH":14617,"BSTAR":2.7334e-5,"MEAN_MOTION_DOT":1.47e-6,"MEAN_MOTION_DDOT":0},{"OBJECT_NAME":"STARLINK-5408","OBJECT_ID":"2022-175BE","EPOCH":"2025-07-27T21:02:52.101024","MEAN_MOTION":15.08845155,"ECCENTRICITY":0.0001161,"INCLINATION":53.2191,"RA_OF_ASC_NODE":313.1172,"ARG_OF_PERICENTER":88.0013,"MEAN_ANOMALY":272.1112,"EPHEMERIS_TYPE":0,"CLASSIFICATION_TYPE":"U","NORAD_CAT_ID":54810,"ELEMENT_SET_NO":999,"REV_AT_EPOCH":14626,"BSTAR":7.6906e-5,"MEAN_MOTION_DOT":9.37e-6,"MEAN_MOTION_DDOT":0}]
