STARLINK-5433           
1 54793U 22175AM  25208.82779839  .00000352  00000+0  40211-4 0  9996
2 54793  53.2184 308.5780 0001080  93.6518 266.4597 15.08844625146323
STARLINK-5436           
1 54795U 22175AP  25208.88206360  .00000109  00000+0  24931-4 0  9999
2 54795  53.2188 318.1525 0001189  98.4350 261.6777 15.08840658146194
STARLINK-5415           
1 54796U 22175AQ  25208.87469467 -.00000410  00000+0 -76788-5 0  9993
2 54796  53.2184 318.1038 0001018  83.6734 276.4374 15.08837900146196
STARLINK-5435           
1 54797U 22175AR  25208.62220233 -.00000451  00000+0 -10238-4 0  9995
2 54797  53.2190 334.3309 0001206  89.5057 270.6074 15.08838853145940
STARLINK-5420           
1 54798U 22175AS  25208.54073650  .00000868  00000+0  72603-4 0  9990
2 54798  53.2179 309.6213 0001202  87.0821 273.0309 15.08840008146286
STARLINK-5421           
1 54799U 22175AT  25208.55915915  .00000203  00000+0  30870-4 0  9994
2 54799  53.2194 309.7356 0001375  93.1251 266.9899 15.08840418146289
STARLINK-5428           
1 54800U 22175AU  25208.61479195  .00000874  00000+0  72975-4 0  9995
2 54800  53.2187 324.2922 0001218  91.7157 268.3974 15.08839094143937
STARLINK-5429           
1 54801U 22175AV  25208.92665056  .00001293  00000+0  99275-4 0  9991
2 54801  53.2198 332.6849 0001230  86.5430 273.5703 15.08841758145997
STARLINK-5426           
1 54802U 22175AW  25209.18009961 -.00000260  00000+0  17440-5 0  9997
2 54802  53.2171 276.4421 0001243  79.8461 280.2671 15.08838208144649
STARLINK-5430           
1 54803U 22175AX  25209.07018223 -.00000099  00000+0  11868-4 0  9994
2 54803  53.2193 332.1427 0000718  88.8899 271.2175 15.08838043143859
STARLINK-5422           
1 54804U 22175AY  25208.72009694  .00000017  00000+0  19176-4 0  9997
2 54804  53.2184 318.5655 0001220  91.8124 268.3008 15.08845656146173
STARLINK-5417           
1 54805U 22175AZ  25208.60604407  .00000415  00000+0  44180-4 0  9993
2 54805  53.2184 319.2686 0001009  85.5535 274.5572 15.08840907146154
STARLINK-5412           
1 54806U 22175BA  25208.72747419 -.00000210  00000+0  48989-5 0  9994
2 54806  53.2187 318.6085 0001215  91.5759 268.5372 15.08839457146179
STARLINK-5410           
1 54807U 22175BB  25208.73115180  .00000602  00000+0  55881-4 0  9992
2 54807  53.2189 318.6297 0001189  89.9116 270.2012 15.08842952146170
STARLINK-5413           
1 54808U 22175BC  25208.83749426  .00000804  00000+0  68650-4 0  9992
2 54808  53.2175 303.6904 0001249  91.2512 268.8623 15.08822122146390
STARLINK-5414           
1 54809U 22175BD  25208.72378524  .00000147  00000+0  27334-4 0  9992
2 54809  53.2184 318.5850 0001153  85.8218 274.2905 15.08841662146172
STARLINK-5408           
1 54810U 22175BE  25208.87699191  .00000937  00000+0  76906-4 0  9992
2 54810  53.2191 313.1172 0001161  88.0013 272.1112 15.08845155146265
